GSAT0101 (PRN E11)      
1 37846U 11060A   24166.79037102 -.00000084  00000+0  00000+0 0  9995
2 37846  57.1290   1.5972 0003596  48.7724 311.2909  1.70476100 78638
GSAT0102 (PRN E12)      
1 37847U 11060B   24170.53225560 -.00000070  00000+0  00000+0 0  9995
2 37847  57.1300   1.4963 0003179  14.7707 167.4532  1.70475490 78703
GSAT0103 (PRN E19)      
1 38857U 12055A   24168.58925288  .00000034  00000+0  00000+0 0  9997
2 38857  55.4071 121.6221 0005339 281.6177  78.2834  1.70473690 72550
GSAT0201 (PRN E18)      
1 40128U 14050A   24170.16540716 -.00000091  00000+0  00000+0 0  9998
2 40128  49.6595 303.0249 1611618 151.2855 218.6536  1.85519507 64795
GSAT0202 (PRN E14)      
1 40129U 14050B   24169.88470460 -.00000092  00000+0  00000+0 0  9995
2 40129  49.6766 302.1130 1610376 152.0766 217.6120  1.85520165 66955
GSAT0203 (PRN E26)      
1 40544U 15017A   24170.08913387 -.00000072  00000+0  00000+0 0  9992
2 40544  56.9242   1.4422 0001402 260.8448  99.1754  1.70476068 56778
GSAT0204 (PRN E22)      
1 40545U 15017B   24169.17016527 -.00000075  00000+0  00000+0 0  9994
2 40545  56.9305   1.4825 0001414 218.1870 141.8385  1.70475749 19807
GSAT0205 (PRN E24)      
1 40889U 15045A   24168.93835148  .00000018  00000+0  00000+0 0  9993
2 40889  55.2170 241.7777 0002739  16.9442 343.1369  1.70473929 54564
GSAT0206 (PRN E30)      
1 40890U 15045B   24169.15900525  .00000020  00000+0  00000+0 0  9995
2 40890  55.2159 241.7669 0001268   8.4718 351.6035  1.70474075 54591
GSAT0209 (PRN E09)      
1 41174U 15079A   24169.32865642  .00000032  00000+0  00000+0 0  9990
2 41174  55.4258 121.3110 0005153 316.6135  43.3047  1.70474105 52339
GSAT0208 (PRN E08)      
1 41175U 15079B   24165.44233175  .00000031  00000+0  00000+0 0  9999
2 41175  55.4239 121.4154 0004559 315.7076  44.2178  1.70474115 52685
GSAT0211 (PRN E02)      
1 41549U 16030A   24169.67129260  .00000024  00000+0  00000+0 0  9992
2 41549  55.3641 241.7640 0003078 302.2977  57.7484  1.70474006 50235
GSAT0210 (PRN E01)      
1 41550U 16030B   24169.96257772  .00000026  00000+0  00000+0 0  9998
2 41550  55.3632 241.7570 0002777 263.9606  96.0854  1.70474124 50234
GSAT0207 (PRN E07)      
1 41859U 16069A   24170.20887045  .00000031  00000+0  00000+0 0  9999
2 41859  55.0908 121.2881 0005343 304.6157  55.2895  1.70473983 46972
GSAT0212 (PRN E03)      
1 41860U 16069B   24170.06316149  .00000031  00000+0  00000+0 0  9997
2 41860  55.0887 121.2885 0004014 328.0497  31.8821  1.70474229 47227
GSAT0213 (PRN E04)      
1 41861U 16069C   24167.49865318  .00000033  00000+0  00000+0 0  9990
2 41861  55.0896 121.3660 0005320 287.8252  72.0799  1.70472916 47044
GSAT0214 (PRN E05)      
1 41862U 16069D   24169.99032833  .00000031  00000+0  00000+0 0  9994
2 41862  55.0894 121.2907 0004319 292.2834  67.6272  1.70474208 47210
GSAT0215 (PRN E21)      
1 43055U 17079A   24169.89349255  .00000026  00000+0  00000+0 0  9994
2 43055  55.3408 241.5796 0002136 252.7676 107.2865  1.70474820 40551
GSAT0216 (PRN E25)      
1 43056U 17079B   24168.42543627  .00000014  00000+0  00000+0 0  9999
2 43056  55.3416 241.6201 0003622 266.9497  93.0789  1.70474978 40542
GSAT0217 (PRN E27)      
1 43057U 17079C   24166.88615146  .00000004  00000+0  00000+0 0  9993
2 43057  55.3405 241.6611 0003327 279.6638  80.3646  1.70474904 40502
GSAT0218 (PRN E31)      
1 43058U 17079D   24169.45254156  .00000022  00000+0  00000+0 0  9990
2 43058  55.3395 241.5880 0004363 265.5228  94.5023  1.70474823 40571
GSAT0221 (PRN E15)      
1 43564U 18060A   24168.76673460 -.00000075  00000+0  00000+0 0  9998
2 43564  57.3039   1.4783 0002033 301.5528  58.4626  1.70475948 36720
GSAT0222 (PRN E33)      
1 43565U 18060B   24167.22549492 -.00000081  00000+0  00000+0 0  9993
2 43565  57.3079   1.5216 0001304 228.0826 131.9393  1.70475722 36730
GSAT0219 (PRN E36)      
1 43566U 18060C   24165.68761780 -.00000087  00000+0  00000+0 0  9994
2 43566  57.3070   1.5649 0001842 333.5799  26.4411  1.70475997 36687
GSAT0220 (PRN E13)      
1 43567U 18060D   24168.84115821 -.00000075  00000+0  00000+0 0  9992
2 43567  57.3071   1.4805 0001764 322.1141  37.9089  1.70475952 36724
GSAT0223 (PRN E34)      
1 49809U 21116A   24168.69592726 -.00000076  00000+0  00000+0 0  9990
2 49809  57.2972   1.3785 0001414 138.8135 222.5081  1.70476110 15730
GSAT0224 (PRN E10)      
1 49810U 21116B   24166.45901503 -.00000084  00000+0  00000+0 0  9990
2 49810  57.2984   1.4370 0001520 119.0214  61.9622  1.70476144 15714
GSAT0225 (PRN E29)      
1 59598U 24079A   24162.57006490  .00000018  00000+0  00000+0 0  9991
2 59598  54.6844 121.6940 0021386 255.0217 286.2987  1.72327500   744
GSAT0227 (PRN E06)      
1 59600U 24079C   24162.27733445  .00000017  00000+0  00000+0 0  9998
2 59600  54.6844 121.7029 0021410 254.7953 104.9173  1.72327436   794
